{
    "links": {
        "self": "http://www.neowsapp.com/rest/v1/neo/3836707?api_key=iIulBulltgU6a56xZRHN4H3l9WmuAYTsLGpBGhQ2"
    },
    "id": "3836707",
    "neo_reference_id": "3836707",
    "name": "(2018 WB3)",
    "designation": "2018 WB3",
    "nasa_jpl_url": "http://ssd.jpl.nasa.gov/sbdb.cgi?sstr=3836707",
    "absolute_magnitude_h": 23.6,
    "estimated_diameter": {
        "kilometers": {
            "estimated_diameter_min": 0.0506471459,
            "estimated_diameter_max": 0.1132504611
        },
        "meters": {
            "estimated_diameter_min": 50.6471458835,
            "estimated_diameter_max": 113.2504610618
        },
        "miles": {
            "estimated_diameter_min": 0.0314706677,
            "estimated_diameter_max": 0.0703705522
        },
        "feet": {
            "estimated_diameter_min": 166.1651821003,
            "estimated_diameter_max": 371.5566426699
        }
    },
    "is_potentially_hazardous_asteroid": false,
    "close_approach_data": [
        {
            "close_approach_date": "2018-11-11",
            "close_approach_date_full": "2018-Nov-11 09:43",
            "epoch_date_close_approach": 1541929380000,
            "relative_velocity": {
                "kilometers_per_second": "7.2061790277",
                "kilometers_per_hour": "25942.2444998041",
                "miles_per_hour": "16119.5018671144"
            },
            "miss_distance": {
                "astronomical": "0.1977207202",
                "lunar": "76.9133601578",
                "kilometers": "29578598.596785974",
                "miles": "18379288.9090914812"
            },
            "orbiting_body": "Earth"
        }
    ],
    "orbital_data": {
        "orbit_id": "4",
        "orbit_determination_date": "2019-07-27 14:01:25",
        "first_observation_date": "2018-11-30",
        "last_observation_date": "2018-12-13",
        "data_arc_in_days": 13,
        "observations_used": 21,
        "orbit_uncertainty": "8",
        "minimum_orbit_intersection": ".197343",
        "jupiter_tisserand_invariant": "3.105",
        "epoch_osculation": "2458457.5",
        "eccentricity": ".5661055281684073",
        "semi_major_axis": "2.681925741209235",
        "inclination": "10.1481266723887",
        "ascending_node_longitude": "74.36207776310189",
        "orbital_period": "1604.237078399167",
        "perihelion_distance": "1.163672752973534",
        "perihelion_argument": "324.8292175545976",
        "aphelion_distance": "4.200178729444937",
        "perihelion_time": "2458425.127441765742",
        "mean_anomaly": "7.264587710416388",
        "mean_motion": ".2244057345683819",
        "equinox": "J2000",
        "orbit_class": {
            "orbit_class_type": "AMO",
            "orbit_class_description": "Near-Earth asteroid orbits similar to that of 1221 Amor",
            "orbit_class_range": "1.017 AU < q (perihelion) < 1.3 AU"
        }
    },
    "is_sentry_object": false
}